STARLINK-1408           
1 45688U 20035AH  22143.74109553  .00001330  00000+0  10817-3 0  9993
2 45688  53.0551 158.3673 0002126  43.3768 316.7388 15.06398362109972
STARLINK-1413           
1 45689U 20035AJ  22144.03227278  .00002213  00000+0  16743-3 0  9997
2 45689  53.0556 157.0822 0002015  50.9052 309.2115 15.06395857109619
STARLINK-1414           
1 45690U 20035AK  22144.13074815 -.00004338  00000+0 -27859-3 0  9999
2 45690  52.9981 156.6448 0001600  48.4631 311.6494 15.05598599109584
STARLINK-1415           
1 45691U 20035AL  22143.75215255  .00000419  00000+0  47013-4 0  9991
2 45691  53.0524 158.3292 0001939  48.4870 311.6285 15.06394310109984
STARLINK-1416           
1 45692U 20035AM  22144.20920661  .00000664  00000+0  63494-4 0  9990
2 45692  53.0526 156.2880 0001795  53.8255 306.2900 15.06402315109646
STARLINK-1417           
1 45693U 20035AN  22143.76321871 -.00000909  00000+0 -42165-4 0  9995
2 45693  53.0542 158.2888 0001766  54.4990 305.6163 15.06388134109978
STARLINK-1419           
1 45694U 20035AP  22143.77058552 -.00000988  00000+0 -47417-4 0  9992
2 45694  53.0546 158.2390 0002007  60.1084 300.0104 15.06389974109582
STARLINK-1420           
1 45695U 20035AQ  22143.30062553  .00000375  00000+0  44078-4 0  9996
2 45695  53.0546 140.3473 0002051  41.2793 318.8350 15.06392693110194
STARLINK-1422           
1 45696U 20035AR  22144.17233955 -.00000345  00000+0 -42366-5 0  9997
2 45696  53.0541 156.4391 0002685  43.7447 316.3754 15.06414387109636
STARLINK-1351           
1 45697U 20035AS  22144.14838167 -.00000045  00000+0  15878-4 0  9994
2 45697  53.0548 136.5612 0001780  56.9056 303.2103 15.06401151109915
STARLINK-1370           
1 45698U 20035AT  22143.47386770  .00000460  00000+0  49771-4 0  9997
2 45698  53.0539 139.5886 0001978  52.8628 307.2541 15.06398661109822
STARLINK-1398           
1 45699U 20035AU  22143.26376192  .00001047  00000+0  89142-4 0  9990
2 45699  53.0560 140.5384 0001571  63.6961 296.4190 15.06400897110186
STARLINK-1400           
1 45700U 20035AV  22143.72450014  .00001957  00000+0  15023-3 0  9996
2 45700  53.0521 138.4550 0001792  64.6444 295.4731 15.06406265110252
STARLINK-1403           
1 45701U 20035AW  22143.68765542  .00000189  00000+0  31579-4 0  9998
2 45701  53.0556 138.6190 0002124  48.6981 311.4190 15.06389711110244
STARLINK-1405           
1 45702U 20035AX  22144.19998943  .00000816  00000+0  73680-4 0  9995
2 45702  53.0541 136.3188 0001986  44.1004 316.0143 15.06403443110319
STARLINK-1407           
1 45703U 20035AY  22143.46649986  .00001360  00000+0  11021-3 0  9990
2 45703  53.0548 139.6258 0002146  50.4454 309.6724 15.06396872110218
STARLINK-1409           
1 45704U 20035AZ  22144.15573624  .00001364  00000+0  11042-3 0  9990
2 45704  53.0543 166.5326 0001608  54.1394 305.9744 15.06399613109490
STARLINK-1410           
1 45705U 20035BA  22143.78440949 -.00000371  00000+0 -59903-5 0  9991
2 45705  53.0537 168.1836 0001872  52.0605 308.0553 15.06389038109439
STARLINK-1411           
1 45706U 20035BB  22144.17419437 -.00000416  00000+0 -89819-5 0  9993
2 45706  53.0544 136.4305 0002090  53.6050 306.5132 15.06395684109914
STARLINK-1412           
1 45707U 20035BC  22143.70608032 -.00001240  00000+0 -64378-4 0  9991
2 45707  53.0545 138.5442 0001750  54.1520 305.9631 15.06391715110258
STARLINK-1418           
1 45708U 20035BD  22143.68028634  .00007908  00000+0  54951-3 0  9993
2 45708  53.0528 138.6457 0002114  60.7245 299.3955 15.06379706110250
STARLINK-1421           
1 45709U 20035BE  22144.18155733  .00000823  00000+0  74116-4 0  9996
2 45709  53.0555 136.4166 0001751  53.5691 306.5459 15.06405398109913
STARLINK-1423           
1 45710U 20035BF  22144.17787455  .00000540  00000+0  55159-4 0  9991
2 45710  53.0558 136.4249 0002184  50.2649 309.8532 15.06398918109915
STARLINK-1433           
1 45711U 20035BG  22143.69502606 -.00001660  00000+0 -92545-4 0  9997
2 45711  53.0529 138.5881 0002260  51.7301 308.3891 15.06400898110246
STARLINK-1434           
1 45712U 20035BH  22144.15576199  .00000999  00000+0  85987-4 0  9992
2 45712  53.0546 136.5316 0001716  57.4238 302.6917 15.06394345109911
STARLINK-1436           
1 45713U 20035BJ  22143.77796218  .00001446  00000+0  11599-3 0  9991
2 45713  53.0530 158.2094 0002017  50.1677 309.9489 15.06392599109576
STARLINK-1437           
1 45714U 20035BK  22143.70239415 -.00000720  00000+0 -29440-4 0  9997
2 45714  53.0536 138.5574 0002135  43.3351 316.7806 15.06391049110256
STARLINK-1461           
1 45730U 20038A   22143.84613651  .00000078  00000+0  24154-4 0  9992
2 45730  53.0572 337.9181 0001394  71.4312 288.6828 15.06396850108431
STARLINK-1465           
1 45731U 20038B   22143.86087553  .00001157  00000+0  96569-4 0  9999
2 45731  53.0558 337.8472 0001505  64.6756 295.4389 15.06397162107319
STARLINK-1466           
1 45732U 20038C   22143.84982618  .00000175  00000+0  30661-4 0  9994
2 45732  53.0556 337.8918 0001448  62.7821 297.3316 15.06395006107317
STARLINK-1467           
1 45733U 20038D   22143.92354753 -.00000066  00000+0  14440-4 0  9994
2 45733  53.0544 337.5662 0001663  63.8629 296.2531 15.06395288108449
STARLINK-1468           
1 45734U 20038E   22143.97146001 -.00000758  00000+0 -31970-4 0  9991
2 45734  53.0557 337.3572 0001653  49.4877 310.6256 15.06403855108441
STARLINK-1471           
1 45735U 20038F   22143.87563535  .00000816  00000+0  73661-4 0  9992
2 45735  53.0561 337.7885 0001456  68.4686 291.6458 15.06394412108437
STARLINK-1472           
1 45736U 20038G   22143.78252215  .00014075  00000+0  38938-3 0  9992
2 45736  53.0631 315.0555 0002053 165.9141 194.1919 15.37295367108759
STARLINK-1474           
1 45738U 20038J   22143.93089753  .00003058  00000+0  22423-3 0  9997
2 45738  53.0570 337.5392 0001381  69.1098 291.0038 15.06381216108440
STARLINK-1475           
1 45739U 20038K   22143.74661204  .00001687  00000+0  13212-3 0  9996
2 45739  53.0569 298.3557 0001585  67.5192 292.5965 15.06397591107851
STARLINK-1479           
1 45740U 20038L   22143.93829401  .00004859  00000+0  34508-3 0  9999
2 45740  53.0567 337.5045 0001795  83.9330 276.1864 15.06377557108440
STARLINK-1480           
1 45741U 20038M   22143.84245491  .00008049  00000+0  55854-3 0  9993
2 45741  53.0541 337.9418 0001791  64.0990 296.0183 15.06406017108437
STARLINK-1481           
1 45742U 20038N   22143.90142950  .00001017  00000+0  87181-4 0  9994
2 45742  53.0556 337.6566 0001638  63.3215 296.7942 15.06393540108433
STARLINK-1483           
1 45743U 20038P   22143.85257551  .00003685  00000+0  26627-3 0  9993
2 45743  53.0623 337.7881 0002202  38.8736 321.2411 15.06384956107315
STARLINK-1500           
1 45744U 20038Q   22143.82403201  .00006319  00000+0  44295-3 0  9994
2 45744  53.0569 338.0019 0001505  50.7814 309.3309 15.06383475108237
STARLINK-1503           
1 45745U 20038R   22143.81296456  .00002625  00000+0  19505-3 0  9998
2 45745  53.0537 338.0600 0001701  67.1905 292.9264 15.06401872108239
STARLINK-1504           
1 45746U 20038S   22143.82770775  .00002178  00000+0  16505-3 0  9991
2 45746  53.0577 337.9920 0001746  65.2676 294.8494 15.06400580108231
STARLINK-1506           
1 45747U 20038T   22143.96409432 -.00000013  00000+0  18057-4 0  9998
2 45747  53.0558 337.3846 0001787  57.0890 303.0271 15.06389098108252
STARLINK-1507           
1 45748U 20038U   22143.81938967 -.00000369  00000+0 -58659-5 0  9991
2 45748  53.0558 338.0241 0001330  62.8665 297.2460 15.06398747108242
STARLINK-1391           
1 45750U 20038W   22144.17971426 -.00000303  00000+0 -14451-5 0  9991
2 45750  53.0552 316.4167 0001584  61.4496 298.6652 15.06399611108760
STARLINK-1464           
1 45751U 20038X   22144.17604562  .00008407  00000+0  58304-3 0  9990
2 45751  53.0565 316.4395 0001906  67.4353 292.6837 15.06372863108763
STARLINK-1469           
1 45752U 20038Y   22144.02288313 -.00015815  00000+0 -92818-4 0  9999
2 45752  52.9985  16.9401 0007541 275.2206  84.7952 15.76660272112893
STARLINK-1476           
1 45753U 20038Z   22143.85537293 -.00001906  00000+0 -10913-3 0  9995
2 45753  53.0536 317.8798 0001726  57.1448 302.9707 15.06374108107603
STARLINK-1477           
1 45754U 20038AA  22144.19076958  .00000332  00000+0  41193-4 0  9995
2 45754  53.0561 316.3628 0001425  83.3060 276.8091 15.06396080108615
STARLINK-1478           
1 45755U 20038AB  22143.74476760  .00002973  00000+0  21839-3 0  9998
2 45755  53.0534 318.3776 0001703  69.7803 290.3369 15.06400104108694
STARLINK-1484           
1 45756U 20038AC  22143.94012365 -.00004056  00000+0 -25342-3 0  9997
2 45756  53.0557 317.4998 0001605  71.0126 289.1037 15.06417396108724
STARLINK-1486           
1 45757U 20038AD  22143.95855396 -.00001386  00000+0 -74133-4 0  9994
2 45757  53.0564 317.4091 0001670  58.9821 301.1332 15.06411333108723
STARLINK-1487           
1 45758U 20038AE  22144.08388539  .00014162  00000+0  96758-3 0  9990
2 45758  53.0540 316.8427 0001929  52.2655 307.8508 15.06404329108740
STARLINK-1493           
1 45759U 20038AF  22144.19815461  .00000026  00000+0  20686-4 0  9994
2 45759  53.0577 316.3273 0001821  56.1200 303.9962 15.06387440108571
STARLINK-1494           
1 45760U 20038AG  22143.80374419  .00000840  00000+0  75257-4 0  9994
2 45760  53.0543 318.1165 0001667  52.2197 307.8943 15.06405544108518
STARLINK-1495           
1 45761U 20038AH  22143.49099013 -.00005593  00000+0 -30189-4 0  9991
2 45761  53.0470 216.3540 0003799   1.5376 358.5655 15.76694761109004
STARLINK-1499           
1 45762U 20038AJ  22143.75957827  .00026821  00000+0  17472-2 0  9990
2 45762  53.0550 318.1569 0001639 100.8189 259.2986 15.07760960107597
STARLINK-1501           
1 45763U 20038AK  22143.41677779  .00059068  00000+0  33241-3 0  9991
2 45763  53.0433 164.2879 0008877 316.4855  43.5464 15.78615358109908
